#aV2019 12  2  0  0  0.00000000     288 DD+AD WGS84 FIT  NGA
## 2082  86400.00000000   300.00000000 58819 0.0000000000000
+   32     1  2  3  4  5  6  7  8  9 10 11 12 13 14 15 16 17
+         18 19 20 21 22 23 24 25 26 27 28 29 30 31 32  0  0
+          0  0  0  0  0  0  0  0  0  0  0  0  0  0  0  0  0
+          0  0  0  0  0  0  0  0  0  0  0  0  0  0  0  0  0
+          0  0  0  0  0  0  0  0  0  0  0  0  0  0  0  0  0
++         2  2  2  2  2  2  2  2  2  2  2  2  2  2  2  2  2
++         2  2  2  2  2  2  2  2  2  2  2  2  2  2  2  0  0
++         0  0  0  0  0  0  0  0  0  0  0  0  0  0  0  0  0
++         0  0  0  0  0  0  0  0  0  0  0  0  0  0  0  0  0
++         0  0  0  0  0  0  0  0  0  0  0  0  0  0  0  0  0
%c cc cc ccc ccc cccc cccc cccc cccc ccccc ccccc ccccc ccccc
%c cc cc ccc ccc cccc cccc cccc cccc ccccc ccccc ccccc ccccc
%f  0.0000000  0.000000000  0.00000000000  0.000000000000000
%f  0.0000000  0.000000000  0.00000000000  0.000000000000000
%i    0    0    0    0      0      0      0      0         0
%i    0    0    0    0      0      0      0      0         0
/*      NGA, ST. LOUIS,MO.                                  
/*   EPHEMERIS COMPUTED FROM 2 DAYS OF DATA                 
/*   EPOCHA v5 SMOOTHER                                     
/*   G1762 IERS2010 SATAF SATAPC                            
*  2019 12  2  5 10  0.00000000
P  1  13475.178046 -14597.867354  17263.054659   -216.172195                    
V  1  -1070.619438  22438.168928  19888.556411     -0.124580                    
P  2 -13753.236731  -9270.653022 -20144.240287   -358.180369                    
V  2   2319.481317 -26908.779088  10364.644123     -0.075294                    
P  3  22145.650592 -13605.511145  -5295.886646    -45.822064                    
V  3   7188.369659   -170.695277  30931.360536     -0.063382                    
P  4  10523.919454 -11034.547125 -21668.217966    -15.503711                    
V  4  21607.137096  17304.589129   1696.252230     -0.045588                    
P  5 -23096.894320    256.596156 -13416.212435     -4.161548                    
V  5  14203.788089  -9188.165707 -24690.109651     -0.004829                    
P  6  -6986.214503 -21494.836532 -13881.056545   -141.229766                    
V  6   3769.504723 -17371.927394  24941.651380     -0.114610                    
P  7   5721.045459 -25394.999737  -3475.173106   -161.049974                    
V  7   2781.399102   5218.325625 -31512.774844     -0.081866                    
P  8  21242.582125   1748.396908  16022.520724    -15.319625                    
V  8  15457.099705  13055.371169 -21746.444230     -0.013032                    
P  9   4521.831504 -15364.282373 -21239.601712    -97.825294                    
V  9  22188.810670  15180.343421  -6281.809544     -0.095224                    
P 10   3026.991354  15101.774903  21684.267329   -156.554986                    
V 10 -25271.298908  10573.517718  -4069.942380     -0.144763                    
P 11  11838.337515 -12483.722671  19795.851671   -431.446724                    
V 11  10002.446892  24453.403272   8895.463271      0.110798                    
P 12 -24672.766335   9539.959915  -1113.228740    177.574286                    
V 12  -1865.496544  -1807.581135  32258.132568     -0.039815                    
P 13 -21829.018307 -11009.122981  10348.490861    -29.283404                    
V 13  -8034.602137 -10823.203533 -28055.043488      0.023977                    
P 14  18911.845239  18679.815520   2352.133442    -47.235209                    
V 14  -3688.238172    304.771286  31438.383395      0.021795                    
P 15 -21372.169187    929.076130  15677.468922   -268.612660                    
V 15 -16271.065524 -12545.239783 -20651.355017      0.026796                    
P 16  22286.221874   2933.282476 -14685.377155    -98.836467                    
V 16 -16760.530047   6944.831219 -23938.883399     -0.038161                    
P 17 -11824.944564 -20572.702142  12429.963407    173.344326                    
V 17  12565.688462   8421.041437  26744.411239      0.067901                    
P 18  14905.310848  -6215.699940  20566.782560    103.979679                    
V 18   -751.381696  27316.202232   8682.891115      0.025499                    
P 19 -17064.252256 -19738.577412   4622.718873   -231.973332                    
V 19   6049.743707   2614.982481  31516.440911      0.051806                    
P 20  -7181.572247  18942.539167  16975.639966    527.583107                    
V 20 -20050.270375   9164.029722 -18795.679607      0.000788                    
P 21  -1265.439804  26633.227297    142.582278    -77.240650                    
V 21  -2917.758797   -909.834256 -31412.851543      0.058504                    
P 22  24270.067040 -10235.854591   3164.011914   -775.240780                    
V 22  -1535.832033   5182.913009  30750.785845     -0.022173                    
P 23  14226.190790  -8232.230559 -20584.807074   -152.103119                    
V 23  21548.072210  16157.973196   7910.667616      0.023270                    
P 24 -14140.854529  12683.693174  18240.480805     -5.667705                    
V 24   -696.730660 -23811.105071  16218.517668     -0.005321                    
P 25 -15634.397063  16779.076654 -13379.607038    -17.415165                    
V 25 -16219.752353   4626.711330  25419.268583     -0.000406                    
P 26  15127.791330   8772.252922 -20065.366053     96.717228                    
V 26 -22545.146119  11796.011783 -11647.297988      0.082581                    
P 27  23115.833370  11741.026259   6371.688529   -137.653716                    
V 27   5414.832530   6397.019589 -30572.662097     -0.117484                    
P 28  -2705.088885 -14938.955808  22407.445942    752.574408                    
V 28  25608.620792  -8337.829145  -2414.775030     -0.016861                    
P 29  -6107.937758  13824.219014 -21867.977023     29.296380                    
V 29 -21259.607800 -17645.772867  -5245.918828     -0.098785                    
P 30  -1541.043861 -25379.404091   7354.521637    -96.591633                    
V 30   4805.969328  -8749.594673 -29500.647406     -0.085364                    
P 31   8332.914430  19525.827144 -15690.478133     -7.026639                    
V 31  -5085.757741  19550.911629  22112.707105     -0.025570                    
P 32  13337.719885  19910.146597  11653.690390    142.862421                    
V 32 -13254.802724  -6717.845468  26654.646068      0.117113                    
EOF
